{
  "type": "FeatureCollection",
  "features": [
    {
      "type": "Feature",
      "properties": {
        "norad_id": 26766,
        "name": "INTELSAT 10 (IS-10)",
        "group": "intelsat",
        "lat": -2.125759833503998,
        "lon": 46.8844543895702,
        "alt_km": 36141.12988584264,
        "timestamp": "2025-12-26T15:29:39.105557+00:00",
        "meta_object_name": "INTELSAT 10 (IS-10)",
        "meta_object_id": "2001-019A",
        "meta_epoch": "2025-12-26T03:37:38.694720",
        "meta_mean_motion": 0.9907193,
        "meta_eccentricity": 0.00080244,
        "meta_inclination": 8.6594,
        "meta_ra_of_asc_node": 61.0206,
        "meta_arg_of_pericenter": 229.8344,
        "meta_mean_anomaly": 299.4437,
        "meta_ephemeris_type": 0,
        "meta_classification_type": "U",
        "meta_norad_cat_id": 26766,
        "meta_element_set_no": 999,
        "meta_rev_at_epoch": 4386,
        "meta_bstar": 0,
        "meta_mean_motion_dot": 4.6e-07,
        "meta_mean_motion_ddot": 0,
        "tle_line1": "1 26766U 01019A   25360.15114230  .00000046  00000+0  00000+0 0  9999",
        "tle_line2": "2 26766   8.6594  61.0206 0008024 229.8344 299.4437  0.99071930 43869"
      },
      "geometry": {
        "type": "Point",
        "coordinates": [
          46.8844543895702,
          -2.125759833503998
        ]
      }
    },
    {
      "type": "Feature",
      "properties": {
        "norad_id": 26900,
        "name": "INTELSAT 902 (IS-902)",
        "group": "intelsat",
        "lat": -2.296315114983914,
        "lon": -82.51685201616144,
        "alt_km": 35769.330581321716,
        "timestamp": "2025-12-26T15:29:39.105582+00:00",
        "meta_object_name": "INTELSAT 902 (IS-902)",
        "meta_object_id": "2001-039A",
        "meta_epoch": "2025-12-15T13:09:02.081664",
        "meta_mean_motion": 1.0027087,
        "meta_eccentricity": 0.00045028,
        "meta_inclination": 5.6536,
        "meta_ra_of_asc_node": 74.0372,
        "meta_arg_of_pericenter": 189.6359,
        "meta_mean_anomaly": 327.9329,
        "meta_ephemeris_type": 0,
        "meta_classification_type": "U",
        "meta_norad_cat_id": 26900,
        "meta_element_set_no": 999,
        "meta_rev_at_epoch": 8885,
        "meta_bstar": 0,
        "meta_mean_motion_dot": -2.65e-06,
        "meta_mean_motion_ddot": 0,
        "tle_line1": "1 26900U 01039A   25349.54794076 -.00000265  00000+0  00000+0 0  9997",
        "tle_line2": "2 26900   5.6536  74.0372 0004502 189.6359 327.9329  1.00270870 88858"
      },
      "geometry": {
        "type": "Point",
        "coordinates": [
          -82.51685201616144,
          -2.296315114983914
        ]
      }
    },
    {
      "type": "Feature",
      "properties": {
        "norad_id": 27380,
        "name": "INTELSAT 904 (IS-904)",
        "group": "intelsat",
        "lat": -4.602959411632816,
        "lon": -63.87442947921195,
        "alt_km": 35778.4735269372,
        "timestamp": "2025-12-26T15:29:39.105600+00:00",
        "meta_object_name": "INTELSAT 904 (IS-904)",
        "meta_object_id": "2002-007A",
        "meta_epoch": "2025-12-26T00:54:05.260032",
        "meta_mean_motion": 1.00272555,
        "meta_eccentricity": 0.0002087,
        "meta_inclination": 6.4858,
        "meta_ra_of_asc_node": 71.2782,
        "meta_arg_of_pericenter": 249.0692,
        "meta_mean_anomaly": 116.4823,
        "meta_ephemeris_type": 0,
        "meta_classification_type": "U",
        "meta_norad_cat_id": 27380,
        "meta_element_set_no": 999,
        "meta_rev_at_epoch": 5003,
        "meta_bstar": 0,
        "meta_mean_motion_dot": -2.06e-06,
        "meta_mean_motion_ddot": 0,
        "tle_line1": "1 27380U 02007A   25360.03756088 -.00000206  00000+0  00000+0 0  9999",
        "tle_line2": "2 27380   6.4858  71.2782 0002087 249.0692 116.4823  1.00272555 50039"
      },
      "geometry": {
        "type": "Point",
        "coordinates": [
          -63.87442947921195,
          -4.602959411632816
        ]
      }
    },
    {
      "type": "Feature",
      "properties": {
        "norad_id": 27426,
        "name": "DIRECTV 5 (TEMPO 1)",
        "group": "intelsat",
        "lat": 2.8349469138391634,
        "lon": -142.2720321155674,
        "alt_km": 35779.835396319875,
        "timestamp": "2025-12-26T15:29:39.105613+00:00",
        "meta_object_name": "DIRECTV 5 (TEMPO 1)",
        "meta_object_id": "2002-023A",
        "meta_epoch": "2025-12-26T05:55:17.661216",
        "meta_mean_motion": 1.00271474,
        "meta_eccentricity": 0.00034125,
        "meta_inclination": 4.4346,
        "meta_ra_of_asc_node": 77.4934,
        "meta_arg_of_pericenter": 205.8268,
        "meta_mean_anomaly": 150.3792,
        "meta_ephemeris_type": 0,
        "meta_classification_type": "U",
        "meta_norad_cat_id": 27426,
        "meta_element_set_no": 999,
        "meta_rev_at_epoch": 8638,
        "meta_bstar": 0,
        "meta_mean_motion_dot": -3.7e-07,
        "meta_mean_motion_ddot": 0,
        "tle_line1": "1 27426U 02023A   25360.24673219 -.00000037  00000+0  00000+0 0  9997",
        "tle_line2": "2 27426   4.4346  77.4934 0003412 205.8268 150.3792  1.00271474 86387"
      },
      "geometry": {
        "type": "Point",
        "coordinates": [
          -142.2720321155674,
          2.8349469138391634
        ]
      }
    },
    {
      "type": "Feature",
      "properties": {
        "norad_id": 27438,
        "name": "INTELSAT 905 (IS-905)",
        "group": "intelsat",
        "lat": 5.544259546864687,
        "lon": -169.25574742481413,
        "alt_km": 35784.17567959778,
        "timestamp": "2025-12-26T15:29:39.105626+00:00",
        "meta_object_name": "INTELSAT 905 (IS-905)",
        "meta_object_id": "2002-027A",
        "meta_epoch": "2025-12-23T05:41:27.377952",
        "meta_mean_motion": 1.00273243,
        "meta_eccentricity": 0.00027491,
        "meta_inclination": 6.3102,
        "meta_ra_of_asc_node": 71.9349,
        "meta_arg_of_pericenter": 206.5226,
        "meta_mean_anomaly": 121.7385,
        "meta_ephemeris_type": 0,
        "meta_classification_type": "U",
        "meta_norad_cat_id": 27438,
        "meta_element_set_no": 999,
        "meta_rev_at_epoch": 4959,
        "meta_bstar": 0,
        "meta_mean_motion_dot": 1.12e-06,
        "meta_mean_motion_ddot": 0,
        "tle_line1": "1 27438U 02027A   25357.23712243  .00000112  00000+0  00000+0 0  9993",
        "tle_line2": "2 27438   6.3102  71.9349 0002749 206.5226 121.7385  1.00273243 49592"
      },
      "geometry": {
        "type": "Point",
        "coordinates": [
          -169.25574742481413,
          5.544259546864687
        ]
      }
    },
    {
      "type": "Feature",
      "properties": {
        "norad_id": 27445,
        "name": "GALAXY 3C (G-3C)",
        "group": "intelsat",
        "lat": 1.5058752443484031,
        "lon": -127.00884261114044,
        "alt_km": 35784.369379846365,
        "timestamp": "2025-12-26T15:29:39.105639+00:00",
        "meta_object_name": "GALAXY 3C (G-3C)",
        "meta_object_id": "2002-030A",
        "meta_epoch": "2025-12-26T00:40:14.516256",
        "meta_mean_motion": 1.00271406,
        "meta_eccentricity": 9.952e-05,
        "meta_inclination": 3.2949,
        "meta_ra_of_asc_node": 80.3648,
        "meta_arg_of_pericenter": 85.9559,
        "meta_mean_anomaly": 203.6643,
        "meta_ephemeris_type": 0,
        "meta_classification_type": "U",
        "meta_norad_cat_id": 27445,
        "meta_element_set_no": 999,
        "meta_rev_at_epoch": 4475,
        "meta_bstar": 0,
        "meta_mean_motion_dot": -1.32e-06,
        "meta_mean_motion_ddot": 0,
        "tle_line1": "1 27445U 02030A   25360.02794579 -.00000132  00000+0  00000+0 0  9991",
        "tle_line2": "2 27445   3.2949  80.3648 0000995  85.9559 203.6643  1.00271406 44759"
      },
      "geometry": {
        "type": "Point",
        "coordinates": [
          -127.00884261114044,
          1.5058752443484031
        ]
      }
    },
    {
      "type": "Feature",
      "properties": {
        "norad_id": 27513,
        "name": "INTELSAT 906 (IS-906)",
        "group": "intelsat",
        "lat": -3.658777683505382,
        "lon": 32.114592119148085,
        "alt_km": 35797.720211069936,
        "timestamp": "2025-12-26T15:29:39.105662+00:00",
        "meta_object_name": "INTELSAT 906 (IS-906)",
        "meta_object_id": "2002-041A",
        "meta_epoch": "2025-12-25T18:30:25.911072",
        "meta_mean_motion": 1.00270895,
        "meta_eccentricity": 0.00061771,
        "meta_inclination": 5.3631,
        "meta_ra_of_asc_node": 75.0767,
        "meta_arg_of_pericenter": 202.1174,
        "meta_mean_anomaly": 159.0704,
        "meta_ephemeris_type": 0,
        "meta_classification_type": "U",
        "meta_norad_cat_id": 27513,
        "meta_element_set_no": 999,
        "meta_rev_at_epoch": 8529,
        "meta_bstar": 0,
        "meta_mean_motion_dot": 3.3e-07,
        "meta_mean_motion_ddot": 0,
        "tle_line1": "1 27513U 02041A   25359.77113323  .00000033  00000+0  00000+0 0  9990",
        "tle_line2": "2 27513   5.3631  75.0767 0006177 202.1174 159.0704  1.00270895 85290"
      },
      "geometry": {
        "type": "Point",
        "coordinates": [
          32.114592119148085,
          -3.658777683505382
        ]
      }
    }
  ]
}